NORAD_CAT_ID,OBJECT_NAME,OBJECT_TYPE,EPOCH,MEAN_MOTION,ECCENTRICITY,INCLINATION,RA_OF_ASC_NODE,ARG_OF_PERICENTER,MEAN_ANOMALY,BSTAR,MEAN_MOTION_DOT,MEAN_MOTION_DDOT,TLE_LINE0,TLE_LINE1,TLE_LINE2,SEMIMAJOR_AXIS,PERIOD,APOGEE,PERIGEE,DECAYED
49453.0,STARLINK-3129,PAYLOAD,2022-12-24 11:33:34,15.08852481,0.0002016,53.2159,76.8884,50.9693,309.1478,0.0002121,3.09e-05,0.0,0 STARLINK-3129,1 49453U 21104AX  22358.48164956  .00003090  00000-0  21210-3 0  9997,2 49453  53.2159  76.8884 0002016  50.9693 309.1478 15.08852481 63030,6917.842,95.437,541.102,538.313,0.0
49453.0,STARLINK-3129,PAYLOAD,2022-12-24 17:55:07,15.08848169,0.0002021,53.2154,75.6991,48.0735,312.043,0.00021722,3.171e-05,0.0,0 STARLINK-3129,1 49453U 21104AX  22358.74661179  .00003171  00000-0  21722-3 0  9993,2 49453  53.2154  75.6991 0002021  48.0735 312.0430 15.08848169 62007,6917.855,95.437,541.119,538.322,0.0
49453.0,STARLINK-3129,PAYLOAD,2022-12-24 22:41:16,15.08849188,0.0001958,53.2151,74.8072,49.1018,311.0143,0.00039797,6.053e-05,0.0,0 STARLINK-3129,1 49453U 21104AX  22358.94533152  .00006053  00000-0  39797-3 0  9997,2 49453  53.2151  74.8072 0001958  49.1018 311.0143 15.08849188 63103,6917.852,95.437,541.072,538.363,0.0
49453.0,STARLINK-3129,PAYLOAD,2022-12-25 11:24:21,15.0885762,0.0001986,53.2154,72.4277,48.6863,311.43,0.00038017,5.770000000000001e-05,0.0,0 STARLINK-3129,1 49453U 21104AX  22359.47524452  .00005770  00000-0  38017-3 0  9998,2 49453  53.2154  72.4277 0001986  48.6863 311.4300 15.08857620 62119,6917.8269999999975,95.436,541.065,538.318,0.0
49453.0,STARLINK-3129,PAYLOAD,2022-12-25 16:10:31,15.08833106,0.0001472,53.215,71.5346,56.4321,303.6812,-5.4038e-05,-1.148e-05,0.0,0 STARLINK-3129,1 49453U 21104AX  22359.67397621 -.00001148  00000-0 -54038-4 0  9995,2 49453  53.2150  71.5346 0001472  56.4321 303.6812 15.08833106 63214,6917.901,95.438,540.785,538.748,0.0
49453.0,STARLINK-3129,PAYLOAD,2022-12-26 11:15:09,15.08837587,0.0001954,53.2167,67.9675,47.5707,312.545,-4.8163e-05,-1.055e-05,0.0,0 STARLINK-3129,1 49453U 21104AX  22360.46886128 -.00001055  00000-0 -48163-4 0  9998,2 49453  53.2167  67.9675 0001954  47.5707 312.5450 15.08837587 62268,6917.888000000001,95.438,541.105,538.401,0.0
49453.0,STARLINK-3129,PAYLOAD,2022-12-26 16:01:18,15.0884228,0.0001914,53.2168,67.0751,43.6372,316.4771,-3.6641e-05,-8.71e-06,0.0,0 STARLINK-3129,1 49453U 21104AX  22360.66757722 -.00000871  00000-0 -36641-4 0  9990,2 49453  53.2168  67.0751 0001914  43.6372 316.4771 15.08842280 62294,6917.873000000001,95.437,541.063,538.414,0.0
49453.0,STARLINK-3129,PAYLOAD,2022-12-27 09:30:32,15.08858936,0.0001905,53.2158,63.8043,41.0855,319.028,0.00044617,6.824e-05,0.0,0 STARLINK-3129,1 49453U 21104AX  22361.39620629  .00006824  00000-0  44617-3 0  9999,2 49453  53.2158  63.8043 0001905  41.0855 319.0280 15.08858936 63479,6917.823,95.436,541.005,538.37,0.0
49453.0,STARLINK-3129,PAYLOAD,2022-12-27 12:41:18,15.08863271,0.0001914,53.2158,63.2096,40.7669,319.3466,0.00054092,8.337e-05,0.0,0 STARLINK-3129,1 49453U 21104AX  22361.52868444  .00008337  00000-0  54092-3 0  9992,2 49453  53.2158  63.2096 0001914  40.7669 319.3466 15.08863271 62421,6917.809,95.436,540.998,538.35,0.0
49453.0,STARLINK-3129,PAYLOAD,2022-12-29 10:47:29,15.088195,0.0001871,53.2151,54.583,37.7498,322.3625,-0.00047885,-7.897e-05,0.0,0 STARLINK-3129,1 49453U 21104AX  22363.44965247 -.00007897  00000-0 -47885-3 0  9998,2 49453  53.2151  54.5830 0001871  37.7498 322.3625 15.08819500 63788,6917.943,95.439,541.102,538.514,0.0
49453.0,STARLINK-3129,PAYLOAD,2022-12-29 12:22:53,15.08820279,0.0001932,53.2158,54.2878,41.0887,319.025,-0.00043042,-7.128e-05,0.0,0 STARLINK-3129,1 49453U 21104AX  22363.51589821 -.00007128  00000-0 -43042-3 0  9994,2 49453  53.2158  54.2878 0001932  41.0887 319.0250 15.08820279 62727,6917.941,95.439,541.1419999999998,538.469,0.0
49453.0,STARLINK-3129,PAYLOAD,2022-12-30 10:38:18,15.088289499999998,0.0001976,53.216,50.1246,39.4872,320.6264,0.00011993,1.62e-05,0.0,0 STARLINK-3129,1 49453U 21104AX  22364.44326719  .00001620  00000-0  11993-3 0  9991,2 49453  53.2160  50.1246 0001976  39.4872 320.6264 15.08828950 63938,6917.9140000000025,95.438,541.146,538.4119999999998,0.0
49453.0,STARLINK-3129,PAYLOAD,2022-12-30 12:13:41,15.08830031,0.0002026,53.216,49.8273,39.9788,320.1353,0.00025078,3.704e-05,0.0,0 STARLINK-3129,1 49453U 21104AX  22364.50950777  .00003704  00000-0  25078-3 0  9999,2 49453  53.2160  49.8273 0002026  39.9788 320.1353 15.08830031 62870,6917.911,95.438,541.177,538.374,0.0
49453.0,STARLINK-3129,PAYLOAD,2022-12-30 20:10:37,15.0884595,0.000202,53.2158,48.3404,39.4737,320.6402,0.00069508,0.00010793,0.0,0 STARLINK-3129,1 49453U 21104AX  22364.84070778  .00010793  00000-0  69508-3 0  9992,2 49453  53.2158  48.3404 0002020  39.4737 320.6402 15.08845950 63990,6917.861999999999,95.437,541.125,538.33,0.0
49453.0,STARLINK-3129,PAYLOAD,2022-12-31 08:53:41,15.08882019,0.0002083,53.2155,45.9615,41.914,318.2012,0.0014330999999999,0.0002262,0.0,0 STARLINK-3129,1 49453U 21104AX  22365.37061933  .00022620  00000-0  14331-2 0  9999,2 49453  53.2155  45.9615 0002083  41.9140 318.2012 15.08882019 64076,6917.752,95.435,541.058,538.1759999999998,0.0
49453.0,STARLINK-3129,PAYLOAD,2022-12-31 10:29:04,15.08884837,0.0002073,53.2154,45.6641,42.2877,317.8275,0.0014198,0.00022408,0.0,0 STARLINK-3129,1 49453U 21104AX  22365.43685744  .00022408  00000-0  14198-2 0  9993,2 49453  53.2154  45.6641 0002073  42.2877 317.8275 15.08884837 63010,6917.743,95.435,541.0419999999998,538.174,0.0
49453.0,STARLINK-3129,PAYLOAD,2022-12-31 20:01:22,15.08873064,0.0002226,53.2154,43.8795,41.4793,318.6368,0.00049936,7.675e-05,0.0,0 STARLINK-3129,1 49453U 21104AX  22365.83429249  .00007675  00000-0  49936-3 0  9991,2 49453  53.2154  43.8795 0002226  41.4793 318.6368 15.08873064 63076,6917.779,95.435,541.184,538.104,0.0
49453.0,STARLINK-3129,PAYLOAD,2023-01-01 02:22:55,15.08865699,0.0002706,53.2154,42.6905,52.1741,307.9496,0.00086047,0.00013443,0.0,0 STARLINK-3129,1 49453U 21104AX  23001.09925274  .00013443  00000-0  86047-3 0  9990,2 49453  53.2154  42.6905 0002706  52.1741 307.9496 15.08865699 64182,6917.802,95.436,541.539,537.795,0.0
49453.0,STARLINK-3129,PAYLOAD,2023-01-01 11:55:14,15.08827481,0.0001861,53.2153,40.9073,32.0427,328.0678,0.00056383,8.694e-05,0.0,0 STARLINK-3129,1 49453U 21104AX  23001.49669808  .00008694  00000-0  56383-3 0  9994,2 49453  53.2153  40.9073 0001861  32.0427 328.0678 15.08827481 64247,6917.919,95.438,541.071,538.496,0.0
49453.0,STARLINK-3129,PAYLOAD,2023-01-01 19:52:10,15.08823419,0.000204,53.2156,39.4197,33.3271,326.7849,0.00097737,0.00015294,0.0,0 STARLINK-3129,1 49453U 21104AX  23001.82790415  .00015294  00000-0  97737-3 0  9992,2 49453  53.2156  39.4197 0002040  33.3271 326.7849 15.08823419 63220,6917.931,95.439,541.207,538.385,0.0
49453.0,STARLINK-3129,PAYLOAD,2023-01-02 13:21:25,15.08848071,0.0002177999999999,53.2157,36.1491,36.9431,323.1711,0.001216,0.00019122,0.0,0 STARLINK-3129,1 49453U 21104AX  23002.55654652  .00019122  00000-0  12160-2 0  9995,2 49453  53.2157  36.1491 0002178  36.9431 323.1711 15.08848071 63333,6917.856,95.437,541.227,538.214,0.0
49453.0,STARLINK-3129,PAYLOAD,2023-01-02 19:42:57,15.08858061,0.0002163,53.2159,34.9589,38.5304,321.5842,0.0011049,0.00017349,0.0,0 STARLINK-3129,1 49453U 21104AX  23002.82150364  .00017349  00000-0  11049-2 0  9990,2 49453  53.2159  34.9589 0002163  38.5304 321.5842 15.08858061 63371,6917.825,95.436,541.187,538.194,0.0
49453.0,STARLINK-3129,PAYLOAD,2023-01-03 02:04:30,15.08848069,0.0002186,53.2156,33.7699,40.1303,319.985,0.00053732,8.276e-05,0.0,0 STARLINK-3129,1 49453U 21104AX  23003.08646593  .00008276  00000-0  53732-3 0  9998,2 49453  53.2156  33.7699 0002186  40.1303 319.9850 15.08848069 64480,6917.856,95.437,541.2330000000002,538.2080000000002,0.0
49453.0,STARLINK-3129,PAYLOAD,2023-01-03 08:26:03,15.08844258,0.0002237,53.2162,32.581,36.9514,323.1631,0.00021836,3.189e-05,0.0,0 STARLINK-3129,1 49453U 21104AX  23003.35142588  .00003189  00000-0  21836-3 0  9991,2 49453  53.2162  32.5810 0002237  36.9514 323.1631 15.08844258 64528,6917.8669999999975,95.437,541.28,538.185,0.0
49453.0,STARLINK-3129,PAYLOAD,2023-01-04 08:16:50,15.08844441,0.0002336999999999,53.2162,28.1191,40.7414,319.3753,0.0002456,3.623e-05,0.0,0 STARLINK-3129,1 49453U 21104AX  23004.34502439  .00003623  00000-0  24560-3 0  9996,2 49453  53.2162  28.1191 0002337  40.7414 319.3753 15.08844441 63608,6917.8669999999975,95.437,541.349,538.115,0.0
49453.0,STARLINK-3129,PAYLOAD,2023-01-04 17:49:08,15.08858959,0.0002331999999999,53.2166,26.3348,41.5654,318.5515,0.00054168,8.348e-05,0.0,0 STARLINK-3129,1 49453U 21104AX  23004.74246031  .00008348  00000-0  54168-3 0  9999,2 49453  53.2166  26.3348 0002332  41.5654 318.5515 15.08858959 64737,6917.821999999999,95.436,541.3009999999998,538.0740000000002,0.0
49453.0,STARLINK-3129,PAYLOAD,2023-01-05 11:18:22,15.08864672,0.0002262,53.2167,23.0658,43.3326,316.7844,0.00044127,6.746e-05,0.0,0 STARLINK-3129,1 49453U 21104AX  23005.47109161  .00006746  00000-0  44127-3 0  9996,2 49453  53.2167  23.0658 0002262  43.3326 316.7844 15.08864672 63771,6917.805,95.436,541.235,538.105,0.0
49453.0,STARLINK-3129,PAYLOAD,2023-01-05 17:39:54,15.08858249,0.0002234,53.2165,21.875,36.3434,323.771,0.0001291999999999,1.77e-05,0.0,0 STARLINK-3129,1 49453U 21104AX  23005.73604949  .00001770  00000-0  12920-3 0  9997,2 49453  53.2165  21.8750 0002234  36.3434 323.7710 15.08858249 63817,6917.825,95.436,541.235,538.144,0.0
49453.0,STARLINK-3129,PAYLOAD,2023-01-06 07:58:23,15.08831765,0.0002105,53.2158,19.1959,21.5215,338.5865,-0.00033946,-5.686e-05,0.0,0 STARLINK-3129,1 49453U 21104AX  23006.33221524 -.00005686  00000-0 -33946-3 0  9991,2 49453  53.2158  19.1959 0002105  21.5215 338.5865 15.08831765 64977,6917.906,95.438,541.227,538.314,0.0
